{
  "type": "FeatureCollection",
  "features": [
    {
      "type": "Feature",
      "properties": {
        "norad_id": 30118,
        "name": "FENGYUN 1C DEB",
        "group": "fengyun-1c-debris",
        "lat": 74.41514120023447,
        "lon": -46.67079746694637,
        "alt_km": 807.5992268849986,
        "timestamp": "2025-12-09T05:43:20.999790+00:00",
        "meta_object_name": "FENGYUN 1C DEB",
        "meta_object_id": "1999-025RX",
        "meta_epoch": "2025-12-08T14:33:03.024000",
        "meta_mean_motion": 14.0512044,
        "meta_eccentricity": 0.0085345,
        "meta_inclination": 98.8032,
        "meta_ra_of_asc_node": 346.4664,
        "meta_arg_of_pericenter": 71.2878,
        "meta_mean_anomaly": 49.7692,
        "meta_ephemeris_type": 0,
        "meta_classification_type": "U",
        "meta_norad_cat_id": 30118,
        "meta_element_set_no": 999,
        "meta_rev_at_epoch": 96873,
        "meta_bstar": 0.00034033,
        "meta_mean_motion_dot": 5.25e-06,
        "meta_mean_motion_ddot": 0,
        "tle_line1": "1 30118U 99025RX  25342.60628500  .00000525  00000+0  34033-3 0  9998",
        "tle_line2": "2 30118  98.8032 346.4664 0085345  71.2878  49.7692 14.05120440968737"
      },
      "geometry": {
        "type": "Point",
        "coordinates": [
          -46.67079746694637,
          74.41514120023447
        ]
      }
    },
    {
      "type": "Feature",
      "properties": {
        "norad_id": 30119,
        "name": "FENGYUN 1C DEB",
        "group": "fengyun-1c-debris",
        "lat": 20.958849034034337,
        "lon": 160.62310682361172,
        "alt_km": 894.4293899311415,
        "timestamp": "2025-12-09T05:43:20.999801+00:00",
        "meta_object_name": "FENGYUN 1C DEB",
        "meta_object_id": "1999-025RY",
        "meta_epoch": "2025-12-08T12:40:34.040064",
        "meta_mean_motion": 14.22186777,
        "meta_eccentricity": 0.01313204,
        "meta_inclination": 97.9206,
        "meta_ra_of_asc_node": 336.9278,
        "meta_arg_of_pericenter": 305.4214,
        "meta_mean_anomaly": 179.8,
        "meta_ephemeris_type": 0,
        "meta_classification_type": "U",
        "meta_norad_cat_id": 30119,
        "meta_element_set_no": 999,
        "meta_rev_at_epoch": 97120,
        "meta_bstar": 0.0024762771,
        "meta_mean_motion_dot": 5.961e-05,
        "meta_mean_motion_ddot": 0,
        "tle_line1": "1 30119U 99025RY  25342.52817176  .00005961  00000+0  24763-2 0  9996",
        "tle_line2": "2 30119  97.9206 336.9278 0131320 305.4214 179.8000 14.22186777971205"
      },
      "geometry": {
        "type": "Point",
        "coordinates": [
          160.62310682361172,
          20.958849034034337
        ]
      }
    },
    {
      "type": "Feature",
      "properties": {
        "norad_id": 30120,
        "name": "FENGYUN 1C DEB",
        "group": "fengyun-1c-debris",
        "lat": 51.452746797816744,
        "lon": 53.81140466904219,
        "alt_km": 839.8216669393505,
        "timestamp": "2025-12-09T05:43:20.999811+00:00",
        "meta_object_name": "FENGYUN 1C DEB",
        "meta_object_id": "1999-025RZ",
        "meta_epoch": "2025-12-08T04:35:05.641728",
        "meta_mean_motion": 14.27536101,
        "meta_eccentricity": 0.00634184,
        "meta_inclination": 98.8519,
        "meta_ra_of_asc_node": 64.0296,
        "meta_arg_of_pericenter": 224.5318,
        "meta_mean_anomaly": 208.2926,
        "meta_ephemeris_type": 0,
        "meta_classification_type": "U",
        "meta_norad_cat_id": 30120,
        "meta_element_set_no": 999,
        "meta_rev_at_epoch": 97306,
        "meta_bstar": 0.0026254037,
        "meta_mean_motion_dot": 6.554e-05,
        "meta_mean_motion_ddot": 0,
        "tle_line1": "1 30120U 99025RZ  25342.19103752  .00006554  00000+0  26254-2 0  9995",
        "tle_line2": "2 30120  98.8519  64.0296 0063418 224.5318 208.2926 14.27536101973066"
      },
      "geometry": {
        "type": "Point",
        "coordinates": [
          53.81140466904219,
          51.452746797816744
        ]
      }
    },
    {
      "type": "Feature",
      "properties": {
        "norad_id": 30121,
        "name": "FENGYUN 1C DEB",
        "group": "fengyun-1c-debris",
        "lat": 27.788149816041084,
        "lon": -170.27464590883676,
        "alt_km": 736.580347652106,
        "timestamp": "2025-12-09T05:43:20.999821+00:00",
        "meta_object_name": "FENGYUN 1C DEB",
        "meta_object_id": "1999-025SA",
        "meta_epoch": "2025-12-08T19:50:06.887904",
        "meta_mean_motion": 14.3991847,
        "meta_eccentricity": 0.0031542,
        "meta_inclination": 102.1652,
        "meta_ra_of_asc_node": 2.6153,
        "meta_arg_of_pericenter": 174.9946,
        "meta_mean_anomaly": 2.1055,
        "meta_ephemeris_type": 0,
        "meta_classification_type": "U",
        "meta_norad_cat_id": 30121,
        "meta_element_set_no": 999,
        "meta_rev_at_epoch": 97483,
        "meta_bstar": 0.0033405,
        "meta_mean_motion_dot": 0.0001051,
        "meta_mean_motion_ddot": 0,
        "tle_line1": "1 30121U 99025SA  25342.82646861  .00010510  00000+0  33405-2 0  9992",
        "tle_line2": "2 30121 102.1652   2.6153 0031542 174.9946   2.1055 14.39918470974838"
      },
      "geometry": {
        "type": "Point",
        "coordinates": [
          -170.27464590883676,
          27.788149816041084
        ]
      }
    },
    {
      "type": "Feature",
      "properties": {
        "norad_id": 30123,
        "name": "FENGYUN 1C DEB",
        "group": "fengyun-1c-debris",
        "lat": 72.00722604853449,
        "lon": 126.41068029496405,
        "alt_km": 635.8553975669829,
        "timestamp": "2025-12-09T05:43:20.999832+00:00",
        "meta_object_name": "FENGYUN 1C DEB",
        "meta_object_id": "1999-025SC",
        "meta_epoch": "2025-12-08T19:08:03.263136",
        "meta_mean_motion": 14.25920866,
        "meta_eccentricity": 0.0230523,
        "meta_inclination": 96.9264,
        "meta_ra_of_asc_node": 284.0814,
        "meta_arg_of_pericenter": 96.762,
        "meta_mean_anomaly": 265.9853,
        "meta_ephemeris_type": 0,
        "meta_classification_type": "U",
        "meta_norad_cat_id": 30123,
        "meta_element_set_no": 999,
        "meta_rev_at_epoch": 97191,
        "meta_bstar": 0.0020895,
        "meta_mean_motion_dot": 6.558e-05,
        "meta_mean_motion_ddot": 0,
        "tle_line1": "1 30123U 99025SC  25342.79725999  .00006558  00000+0  20895-2 0  9996",
        "tle_line2": "2 30123  96.9264 284.0814 0230523  96.7620 265.9853 14.25920866971917"
      },
      "geometry": {
        "type": "Point",
        "coordinates": [
          126.41068029496405,
          72.00722604853449
        ]
      }
    },
    {
      "type": "Feature",
      "properties": {
        "norad_id": 30124,
        "name": "FENGYUN 1C DEB",
        "group": "fengyun-1c-debris",
        "lat": 1.8068427711148949,
        "lon": -142.68200305915863,
        "alt_km": 798.511036821893,
        "timestamp": "2025-12-09T05:43:20.999860+00:00",
        "meta_object_name": "FENGYUN 1C DEB",
        "meta_object_id": "1999-025SD",
        "meta_epoch": "2025-12-08T15:52:14.627424",
        "meta_mean_motion": 14.1420918,
        "meta_eccentricity": 0.0143517,
        "meta_inclination": 99.1311,
        "meta_ra_of_asc_node": 36.4375,
        "meta_arg_of_pericenter": 117.2395,
        "meta_mean_anomaly": 2.5902,
        "meta_ephemeris_type": 0,
        "meta_classification_type": "U",
        "meta_norad_cat_id": 30124,
        "meta_element_set_no": 999,
        "meta_rev_at_epoch": 96857,
        "meta_bstar": 0.0014846,
        "meta_mean_motion_dot": 3.082e-05,
        "meta_mean_motion_ddot": 0,
        "tle_line1": "1 30124U 99025SD  25342.66128041  .00003082  00000+0  14846-2 0  9996",
        "tle_line2": "2 30124  99.1311  36.4375 0143517 117.2395   2.5902 14.14209180968576"
      },
      "geometry": {
        "type": "Point",
        "coordinates": [
          -142.68200305915863,
          1.8068427711148949
        ]
      }
    },
    {
      "type": "Feature",
      "properties": {
        "norad_id": 30125,
        "name": "FENGYUN 1C DEB",
        "group": "fengyun-1c-debris",
        "lat": -41.83843363065639,
        "lon": -105.83721216633374,
        "alt_km": 983.2476799147207,
        "timestamp": "2025-12-09T05:43:20.999874+00:00",
        "meta_object_name": "FENGYUN 1C DEB",
        "meta_object_id": "1999-025SE",
        "meta_epoch": "2025-12-08T05:17:18.501792",
        "meta_mean_motion": 14.22615987,
        "meta_eccentricity": 0.03426243,
        "meta_inclination": 98.7241,
        "meta_ra_of_asc_node": 81.0544,
        "meta_arg_of_pericenter": 357.3033,
        "meta_mean_anomaly": 56.9154,
        "meta_ephemeris_type": 0,
        "meta_classification_type": "U",
        "meta_norad_cat_id": 30125,
        "meta_element_set_no": 999,
        "meta_rev_at_epoch": 96857,
        "meta_bstar": 0.0010003707,
        "meta_mean_motion_dot": 4.041e-05,
        "meta_mean_motion_ddot": 0,
        "tle_line1": "1 30125U 99025SE  25342.22035303  .00004041  00000+0  10004-2 0  9995",
        "tle_line2": "2 30125  98.7241  81.0544 0342624 357.3033  56.9154 14.22615987968571"
      },
      "geometry": {
        "type": "Point",
        "coordinates": [
          -105.83721216633374,
          -41.83843363065639
        ]
      }
    }
  ]
}